{"type": "FeatureCollection", "features": [ {"type": "Feature", "properties": {"norad_id": 44476, "name": "INTELSAT 39 (IS-39)", "group": "intelsat", "lat": -0.006360575880681335, "lon": -46.10069166464858, "alt_km": 35790.568548775926, "timestamp": "2025-12-09T11:33:54.468516+00:00", "meta": {"OBJECT_NAME": "INTELSAT 39 (IS-39)", "OBJECT_ID": "2019-049B", "EPOCH": "2025-12-09T03:35:43.926144", "MEAN_MOTION": 1.00270125, "ECCENTRICITY": 0.0001017, "INCLINATION": 0.0147, "RA_OF_ASC_NODE": 314.4755, "ARG_OF_PERICENTER": 198.5375, "MEAN_ANOMALY": 41.0167, "EPHEMERIS_TYPE": 0, "CLASSIFICATION_TYPE": "U", "NORAD_CAT_ID": 44476, "ELEMENT_SET_NO": 999, "REV_AT_EPOCH": 2322, "BSTAR": 0, "MEAN_MOTION_DOT": 3.6e-07, "MEAN_MOTION_DDOT": 0}, "tle": {"line1": "1 44476U 19049B   25343.14981396  .00000036  00000+0  00000+0 0  9993", "line2": "2 44476   0.0147 314.4755 0001017 198.5375  41.0167  1.00270125 23221"}}, "geometry": {"type": "Point", "coordinates": [-46.10069166464858, -0.006360575880681335]}}, {"type": "Feature", "properties": {"norad_id": 46114, "name": "GALAXY 30 (G-30)", "group": "intelsat", "lat": 0.026572172305620735, "lon": 126.9200545449193, "alt_km": 35792.71035356739, "timestamp": "2025-12-09T11:33:54.468527+00:00", "meta": {"OBJECT_NAME": "GALAXY 30 (G-30)", "OBJECT_ID": "2020-056C", "EPOCH": "2025-12-09T02:50:38.725728", "MEAN_MOTION": 1.00271328, "ECCENTRICITY": 0.0002397, "INCLINATION": 0.0174, "RA_OF_ASC_NODE": 357.6559, "ARG_OF_PERICENTER": 259.2548, "MEAN_ANOMALY": 98.8607, "EPHEMERIS_TYPE": 0, "CLASSIFICATION_TYPE": "U", "NORAD_CAT_ID": 46114, "ELEMENT_SET_NO": 999, "REV_AT_EPOCH": 1938, "BSTAR": 0, "MEAN_MOTION_DOT": 3.9e-07, "MEAN_MOTION_DDOT": 0}, "tle": {"line1": "1 46114U 20056C   25343.11850377  .00000039  00000+0  00000+0 0  9998", "line2": "2 46114   0.0174 357.6559 0002397 259.2548  98.8607  1.00271328 19389"}}, "geometry": {"type": "Point", "coordinates": [126.9200545449193, 0.026572172305620735]}}, {"type": "Feature", "properties": {"norad_id": 54026, "name": "GALAXY 33 (G-33)", "group": "intelsat", "lat": 0.011047789271853764, "lon": 118.92885816712949, "alt_km": 35792.184927609684, "timestamp": "2025-12-09T11:33:54.468539+00:00", "meta": {"OBJECT_NAME": "GALAXY 33 (G-33)", "OBJECT_ID": "2022-128A", "EPOCH": "2025-12-09T04:34:41.849760", "MEAN_MOTION": 1.00272048, "ECCENTRICITY": 0.0002243, "INCLINATION": 0.0141, "RA_OF_ASC_NODE": 305.585, "ARG_OF_PERICENTER": 304.0405, "MEAN_ANOMALY": 124.2365, "EPHEMERIS_TYPE": 0, "CLASSIFICATION_TYPE": "U", "NORAD_CAT_ID": 54026, "ELEMENT_SET_NO": 999, "REV_AT_EPOCH": 1183, "BSTAR": 0, "MEAN_MOTION_DOT": 8.1e-07, "MEAN_MOTION_DDOT": 0}, "tle": {"line1": "1 54026U 22128A   25343.19076215  .00000081  00000+0  00000+0 0  9997", "line2": "2 54026   0.0141 305.5850 0002243 304.0405 124.2365  1.00272048 11838"}}, "geometry": {"type": "Point", "coordinates": [118.92885816712949, 0.011047789271853764]}}, {"type": "Feature", "properties": {"norad_id": 54027, "name": "GALAXY 34 (G-34)", "group": "intelsat", "lat": 0.019047554979431194, "lon": 122.9986095240994, "alt_km": 35789.67419131394, "timestamp": "2025-12-09T11:33:54.468551+00:00", "meta": {"OBJECT_NAME": "GALAXY 34 (G-34)", "OBJECT_ID": "2022-128B", "EPOCH": "2025-12-09T02:17:01.500000", "MEAN_MOTION": 1.00270395, "ECCENTRICITY": 0.0001398, "INCLINATION": 0.0261, "RA_OF_ASC_NODE": 321.5933, "ARG_OF_PERICENTER": 284.4162, "MEAN_ANOMALY": 97.406, "EPHEMERIS_TYPE": 0, "CLASSIFICATION_TYPE": "U", "NORAD_CAT_ID": 54027, "ELEMENT_SET_NO": 999, "REV_AT_EPOCH": 1200, "BSTAR": 0, "MEAN_MOTION_DOT": 0, "MEAN_MOTION_DDOT": 0}, "tle": {"line1": "1 54027U 22128B   25343.09515625  .00000000  00000+0  00000+0 0  9991", "line2": "2 54027   0.0261 321.5933 0001398 284.4162  97.4060  1.00270395 12009"}}, "geometry": {"type": "Point", "coordinates": [122.9986095240994, 0.019047554979431194]}}, {"type": "Feature", "properties": {"norad_id": 54243, "name": "GALAXY 31 (G-31)", "group": "intelsat", "lat": -0.004115892000564609, "lon": 130.93491096090577, "alt_km": 35792.16665646439, "timestamp": "2025-12-09T11:33:54.468563+00:00", "meta": {"OBJECT_NAME": "GALAXY 31 (G-31)", "OBJECT_ID": "2022-153A", "EPOCH": "2025-12-09T04:35:53.292192", "MEAN_MOTION": 1.00271844, "ECCENTRICITY": 0.0001916, "INCLINATION": 0.0197, "RA_OF_ASC_NODE": 257.132, "ARG_OF_PERICENTER": 12.8085, "MEAN_ANOMALY": 116.2212, "EPHEMERIS_TYPE": 0, "CLASSIFICATION_TYPE": "U", "NORAD_CAT_ID": 54243, "ELEMENT_SET_NO": 999, "REV_AT_EPOCH": 522, "BSTAR": 0, "MEAN_MOTION_DOT": 1.5e-07, "MEAN_MOTION_DDOT": 0}, "tle": {"line1": "1 54243U 22153A   25343.19158903  .00000015  00000+0  00000+0 0  9998", "line2": "2 54243   0.0197 257.1320 0001916  12.8085 116.2212  1.00271844  5229"}}, "geometry": {"type": "Point", "coordinates": [130.93491096090577, -0.004115892000564609]}}, {"type": "Feature", "properties": {"norad_id": 54244, "name": "GALAXY 32 (G-32)", "group": "intelsat", "lat": 0.0002916728572839301, "lon": 160.92522883778204, "alt_km": 35796.15787014762, "timestamp": "2025-12-09T11:33:54.468574+00:00", "meta": {"OBJECT_NAME": "GALAXY 32 (G-32)", "OBJECT_ID": "2022-153B", "EPOCH": "2025-12-09T04:53:26.406240", "MEAN_MOTION": 1.00270511, "ECCENTRICITY": 0.0002728, "INCLINATION": 0.0081, "RA_OF_ASC_NODE": 341.1607, "ARG_OF_PERICENTER": 327.581, "MEAN_ANOMALY": 111.814, "EPHEMERIS_TYPE": 0, "CLASSIFICATION_TYPE": "U", "NORAD_CAT_ID": 54244, "ELEMENT_SET_NO": 999, "REV_AT_EPOCH": 1123, "BSTAR": 0, "MEAN_MOTION_DOT": -1.72e-06, "MEAN_MOTION_DDOT": 0}, "tle": {"line1": "1 54244U 22153B   25343.20377785 -.00000172  00000+0  00000+0 0  9997", "line2": "2 54244   0.0081 341.1607 0002728 327.5810 111.8140  1.00270511 11237"}}, "geometry": {"type": "Point", "coordinates": [160.92522883778204, 0.0002916728572839301]}}, {"type": "Feature", "properties": {"norad_id": 54741, "name": "GALAXY 35 (G-35)", "group": "intelsat", "lat": 0.016268738833885247, "lon": 158.8280481438963, "alt_km": 35789.40019198353, "timestamp": "2025-12-09T11:33:54.468586+00:00", "meta": {"OBJECT_NAME": "GALAXY 35 (G-35)", "OBJECT_ID": "2022-170A", "EPOCH": "2025-12-09T04:40:21.198720", "MEAN_MOTION": 1.00271034, "ECCENTRICITY": 0.0002656, "INCLINATION": 0.0241, "RA_OF_ASC_NODE": 84.7288, "ARG_OF_PERICENTER": 180.125, "MEAN_ANOMALY": 150.3361, "EPHEMERIS_TYPE": 0, "CLASSIFICATION_TYPE": "U", "NORAD_CAT_ID": 54741, "ELEMENT_SET_NO": 999, "REV_AT_EPOCH": 1098, "BSTAR": 0, "MEAN_MOTION_DOT": -1.6e-06, "MEAN_MOTION_DDOT": 0}, "tle": {"line1": "1 54741U 22170A   25343.19468980 -.00000160  00000+0  00000+0 0  9991", "line2": "2 54741   0.0241  84.7288 0002656 180.1250 150.3361  1.00271034 10988"}}, "geometry": {"type": "Point", "coordinates": [158.8280481438963, 0.016268738833885247]}}, {"type": "Feature", "properties": {"norad_id": 54742, "name": "GALAXY 36 (G-36)", "group": "intelsat", "lat": 0.009223734308553326, "lon": 162.93597530559495, "alt_km": 35787.609329448496, "timestamp": "2025-12-09T11:33:54.468597+00:00", "meta": {"OBJECT_NAME": "GALAXY 36 (G-36)", "OBJECT_ID": "2022-170B", "EPOCH": "2025-12-09T04:04:38.821728", "MEAN_MOTION": 1.00270728, "ECCENTRICITY": 5.75e-05, "INCLINATION": 0.0082, "RA_OF_ASC_NODE": 36.2191, "ARG_OF_PERICENTER": 246.7942, "MEAN_ANOMALY": 127.3103, "EPHEMERIS_TYPE": 0, "CLASSIFICATION_TYPE": "U", "NORAD_CAT_ID": 54742, "ELEMENT_SET_NO": 999, "REV_AT_EPOCH": 1086, "BSTAR": 0, "MEAN_MOTION_DOT": -1.83e-06, "MEAN_MOTION_DDOT": 0}, "tle": {"line1": "1 54742U 22170B   25343.16989377 -.00000183  00000+0  00000+0 0  9992", "line2": "2 54742   0.0082  36.2191 0000575 246.7942 127.3103  1.00270728 10866"}}, "geometry": {"type": "Point", "coordinates": [162.93597530559495, 0.009223734308553326]}}, {"type": "Feature", "properties": {"norad_id": 57493, "name": "GALAXY 37 (G-37)", "group": "intelsat", "lat": 0.01778222923625904, "lon": 124.93055382441072, "alt_km": 35793.55633166499, "timestamp": "2025-12-09T11:33:54.468609+00:00", "meta": {"OBJECT_NAME": "GALAXY 37 (G-37)", "OBJECT_ID": "2023-112A", "EPOCH": "2025-12-09T02:58:38.651808", "MEAN_MOTION": 1.00271498, "ECCENTRICITY": 0.0002343, "INCLINATION": 0.011, "RA_OF_ASC_NODE": 337.5468, "ARG_OF_PERICENTER": 285.8277, "MEAN_ANOMALY": 92.4091, "EPHEMERIS_TYPE": 0, "CLASSIFICATION_TYPE": "U", "NORAD_CAT_ID": 57493, "ELEMENT_SET_NO": 999, "REV_AT_EPOCH": 863, "BSTAR": 0, "MEAN_MOTION_DOT": 5e-07, "MEAN_MOTION_DDOT": 0}, "tle": {"line1": "1 57493U 23112A   25343.12405847  .00000050  00000+0  00000+0 0  9998", "line2": "2 57493   0.0110 337.5468 0002343 285.8277  92.4091  1.00271498  8633"}}, "geometry": {"type": "Point", "coordinates": [124.93055382441072, 0.01778222923625904]}}]}